[{"OBJECT_NAME":"ONEWEB-0290","OBJECT_ID":"2021-075F","EPOCH":"2025-11-24T10:54:33.390432","MEAN_MOTION":13.17649165,"ECCENTRICITY":0.0002122,"INCLINATION":87.9138,"RA_OF_ASC_NODE":46.5541,"ARG_OF_PERICENTER":87.1903,"MEAN_ANOMALY":272.9471,"EPHEMERIS_TYPE":0,"CLASSIFICATION_TYPE":"U","NORAD_CAT_ID":49080,"ELEMENT_SET_NO":999,"REV_AT_EPOCH":20665,"BSTAR":-2.8565e-5,"MEAN_MOTION_DOT":2.0e-8,"MEAN_MOTION_DDOT":0},{"OBJECT_NAME":"ONEWEB-0291","OBJECT_ID":"2021-075G","EPOCH":"2025-11-24T06:53:58.782624","MEAN_MOTION":13.17648079,"ECCENTRICITY":0.0001521,"INCLINATION":87.9135,"RA_OF_ASC_NODE":46.5937,"ARG_OF_PERICENTER":100.3251,"MEAN_ANOMALY":259.8052,"EPHEMERIS_TYPE":0,"CLASSIFICATION_TYPE":"U","NORAD_CAT_ID":49081,"ELEMENT_SET_NO":999,"REV_AT_EPOCH":20662,"BSTAR":0.00054855,"MEAN_MOTION_DOT":2.26e-6,"MEAN_MOTION_DDOT":0},{"OBJECT_NAME":"ONEWEB-0293","OBJECT_ID":"2021-075H","EPOCH":"2025-11-24T05:41:04.748064","MEAN_MOTION":13.17648529,"ECCENTRICITY":0.0001836,"INCLINATION":87.9127,"RA_OF_ASC_NODE":46.6261,"ARG_OF_PERICENTER":100.045,"MEAN_ANOMALY":260.0889,"EPHEMERIS_TYPE":0,"CLASSIFICATION_TYPE":"U","NORAD_CAT_ID":49082,"ELEMENT_SET_NO":999,"REV_AT_EPOCH":20664,"BSTAR":0.00020797,"MEAN_MOTION_DOT":9.4e-7,"MEAN_MOTION_DDOT":0},{"OBJECT_NAME":"ONEWEB-0294","OBJECT_ID":"2021-075J","EPOCH":"2025-11-24T04:12:19.624032","MEAN_MOTION":13.12442831,"ECCENTRICITY":0.0001862,"INCLINATION":87.8963,"RA_OF_ASC_NODE":31.3824,"ARG_OF_PERICENTER":86.8008,"MEAN_ANOMALY":273.3334,"EPHEMERIS_TYPE":0,"CLASSIFICATION_TYPE":"U","NORAD_CAT_ID":49083,"ELEMENT_SET_NO":999,"REV_AT_EPOCH":20768,"BSTAR":0.0014874,"MEAN_MOTION_DOT":5.48e-6,"MEAN_MOTION_DDOT":0},{"OBJECT_NAME":"ONEWEB-0295","OBJECT_ID":"2021-075K","EPOCH":"2025-11-24T11:07:54.079104","MEAN_MOTION":13.17652651,"ECCENTRICITY":0.0001452,"INCLINATION":87.9126,"RA_OF_ASC_NODE":46.5854,"ARG_OF_PERICENTER":98.9792,"MEAN_ANOMALY":261.1504,"EPHEMERIS_TYPE":0,"CLASSIFICATION_TYPE":"U","NORAD_CAT_ID":49084,"ELEMENT_SET_NO":999,"REV_AT_EPOCH":20663,"BSTAR":0.00037107,"MEAN_MOTION_DOT":1.57e-6,"MEAN_MOTION_DDOT":0},{"OBJECT_NAME":"ONEWEB-0296","OBJECT_ID":"2021-075L","EPOCH":"2025-11-24T11:03:25.434720","MEAN_MOTION":13.12444461,"ECCENTRICITY":0.0001457,"INCLINATION":87.8955,"RA_OF_ASC_NODE":31.3306,"ARG_OF_PERICENTER":88.6374,"MEAN_ANOMALY":271.4921,"EPHEMERIS_TYPE":0,"CLASSIFICATION_TYPE":"U","NORAD_CAT_ID":49085,"ELEMENT_SET_NO":999,"REV_AT_EPOCH":20772,"BSTAR":0.00023332,"MEAN_MOTION_DOT":9.7e-7,"MEAN_MOTION_DDOT":0},{"OBJECT_NAME":"ONEWEB-0297","OBJECT_ID":"2021-075M","EPOCH":"2025-11-24T09:58:01.436160","MEAN_MOTION":13.1244141,"ECCENTRICITY":0.0001736,"INCLINATION":87.8953,"RA_OF_ASC_NODE":31.3729,"ARG_OF_PERICENTER":101.8906,"MEAN_ANOMALY":258.2417,"EPHEMERIS_TYPE":0,"CLASSIFICATION_TYPE":"U","NORAD_CAT_ID":49086,"ELEMENT_SET_NO":999,"REV_AT_EPOCH":20832,"BSTAR":0.00071173,"MEAN_MOTION_DOT":2.69e-6,"MEAN_MOTION_DDOT":0},{"OBJECT_NAME":"ONEWEB-0298","OBJECT_ID":"2021-075N","EPOCH":"2025-11-24T05:46:08.240160","MEAN_MOTION":13.17648358,"ECCENTRICITY":0.0001897,"INCLINATION":87.9129,"RA_OF_ASC_NODE":46.6267,"ARG_OF_PERICENTER":107.4329,"MEAN_ANOMALY":252.701,"EPHEMERIS_TYPE":0,"CLASSIFICATION_TYPE":"U","NORAD_CAT_ID":49087,"ELEMENT_SET_NO":999,"REV_AT_EPOCH":20663,"BSTAR":0.00028772,"MEAN_MOTION_DOT":1.25e-6,"MEAN_MOTION_DDOT":0},{"OBJECT_NAME":"ONEWEB-0299","OBJECT_ID":"2021-075P","EPOCH":"2025-11-24T05:48:22.487616","MEAN_MOTION":13.1764858,"ECCENTRICITY":0.0001648,"INCLINATION":87.9135,"RA_OF_ASC_NODE":46.5861,"ARG_OF_PERICENTER":105.7146,"MEAN_ANOMALY":254.4167,"EPHEMERIS_TYPE":0,"CLASSIFICATION_TYPE":"U","NORAD_CAT_ID":49088,"ELEMENT_SET_NO":999,"REV_AT_EPOCH":20661,"BSTAR":0.00034498,"MEAN_MOTION_DOT":1.47e-6,"MEAN_MOTION_DDOT":0},{"OBJECT_NAME":"ONEWEB-0300","OBJECT_ID":"2021-075Q","EPOCH":"2025-11-24T06:06:47.013120","MEAN_MOTION":13.12442443,"ECCENTRICITY":0.0002019,"INCLINATION":87.8963,"RA_OF_ASC_NODE":31.3628,"ARG_OF_PERICENTER":110.9621,"MEAN_ANOMALY":249.1724,"EPHEMERIS_TYPE":0,"CLASSIFICATION_TYPE":"U","NORAD_CAT_ID":49089,"ELEMENT_SET_NO":999,"REV_AT_EPOCH":20832,"BSTAR":0.0012382,"MEAN_MOTION_DOT":4.58e-6,"MEAN_MOTION_DDOT":0},{"OBJECT_NAME":"ONEWEB-0301","OBJECT_ID":"2021-075R","EPOCH":"2025-11-24T05:43:25.140288","MEAN_MOTION":13.12442845,"ECCENTRICITY":0.0002089,"INCLINATION":87.8957,"RA_OF_ASC_NODE":31.3684,"ARG_OF_PERICENTER":111.6063,"MEAN_ANOMALY":248.5288,"EPHEMERIS_TYPE":0,"CLASSIFICATION_TYPE":"U","NORAD_CAT_ID":49090,"ELEMENT_SET_NO":999,"REV_AT_EPOCH":20768,"BSTAR":0.001011,"MEAN_MOTION_DOT":3.76e-6,"MEAN_MOTION_DDOT":0},{"OBJECT_NAME":"ONEWEB-0302","OBJECT_ID":"2021-075S","EPOCH":"2025-11-24T10:54:04.323744","MEAN_MOTION":13.1244375,"ECCENTRICITY":0.0001706,"INCLINATION":87.8959,"RA_OF_ASC_NODE":31.3333,"ARG_OF_PERICENTER":88.9035,"MEAN_ANOMALY":271.2289,"EPHEMERIS_TYPE":0,"CLASSIFICATION_TYPE":"U","NORAD_CAT_ID":49091,"ELEMENT_SET_NO":999,"REV_AT_EPOCH":20769,"BSTAR":-0.00031934,"MEAN_MOTION_DOT":-1.02e-6,"MEAN_MOTION_DDOT":0},{"OBJECT_NAME":"ONEWEB-0304","OBJECT_ID":"2021-075T","EPOCH":"2025-11-24T05:11:55.425408","MEAN_MOTION":13.17648664,"ECCENTRICITY":0.0001698,"INCLINATION":87.9136,"RA_OF_ASC_NODE":46.622,"ARG_OF_PERICENTER":102.4551,"MEAN_ANOMALY":257.6771,"EPHEMERIS_TYPE":0,"CLASSIFICATION_TYPE":"U","NORAD_CAT_ID":49092,"ELEMENT_SET_NO":999,"REV_AT_EPOCH":20658,"BSTAR":0.00032575,"MEAN_MOTION_DOT":1.39e-6,"MEAN_MOTION_DDOT":0},{"OBJECT_NAME":"ONEWEB-0305","OBJECT_ID":"2021-075U","EPOCH":"2025-11-24T06:51:33.303168","MEAN_MOTION":13.17648699,"ECCENTRICITY":0.0001408,"INCLINATION":87.9136,"RA_OF_ASC_NODE":46.5852,"ARG_OF_PERICENTER":107.2466,"MEAN_ANOMALY":252.882,"EPHEMERIS_TYPE":0,"CLASSIFICATION_TYPE":"U","NORAD_CAT_ID":49093,"ELEMENT_SET_NO":999,"REV_AT_EPOCH":20662,"BSTAR":0.00027346,"MEAN_MOTION_DOT":1.19e-6,"MEAN_MOTION_DDOT":0},{"OBJECT_NAME":"ONEWEB-0308","OBJECT_ID":"2021-075V","EPOCH":"2025-11-24T10:44:42.645984","MEAN_MOTION":13.12443014,"ECCENTRICITY":0.0001827,"INCLINATION":87.8961,"RA_OF_ASC_NODE":31.3278,"ARG_OF_PERICENTER":100.0633,"MEAN_ANOMALY":260.0701,"EPHEMERIS_TYPE":0,"CLASSIFICATION_TYPE":"U","NORAD_CAT_ID":49094,"ELEMENT_SET_NO":999,"REV_AT_EPOCH":20770,"BSTAR":-0.00071958,"MEAN_MOTION_DOT":-2.46e-6,"MEAN_MOTION_DDOT":0},{"OBJECT_NAME":"ONEWEB-0309","OBJECT_ID":"2021-075W","EPOCH":"2025-11-24T06:56:24.655200","MEAN_MOTION":13.17648182,"ECCENTRICITY":0.0001806,"INCLINATION":87.9135,"RA_OF_ASC_NODE":46.6005,"ARG_OF_PERICENTER":91.491,"MEAN_ANOMALY":268.6428,"EPHEMERIS_TYPE":0,"CLASSIFICATION_TYPE":"U","NORAD_CAT_ID":49095,"ELEMENT_SET_NO":999,"REV_AT_EPOCH":20659,"BSTAR":0.00050734,"MEAN_MOTION_DOT":2.1e-6,"MEAN_MOTION_DDOT":0},{"OBJECT_NAME":"ONEWEB-0310","OBJECT_ID":"2021-075X","EPOCH":"2025-11-24T11:05:44.988000","MEAN_MOTION":13.12446171,"ECCENTRICITY":0.0001701,"INCLINATION":87.8949,"RA_OF_ASC_NODE":31.3635,"ARG_OF_PERICENTER":93.8204,"MEAN_ANOMALY":266.3119,"EPHEMERIS_TYPE":0,"CLASSIFICATION_TYPE":"U","NORAD_CAT_ID":49096,"ELEMENT_SET_NO":999,"REV_AT_EPOCH":20833,"BSTAR":-0.00031516,"MEAN_MOTION_DOT":-1.01e-6,"MEAN_MOTION_DDOT":0}]
