ONEWEB-0290             
1 49080U 21075F   25328.45455313  .00000002  00000+0 -28565-4 0  9998
2 49080  87.9138  46.5541 0002122  87.1903 272.9471 13.17649165206653
ONEWEB-0291             
1 49081U 21075G   25328.28748591  .00000226  00000+0  54855-3 0  9990
2 49081  87.9135  46.5937 0001521 100.3251 259.8052 13.17648079206625
ONEWEB-0293             
1 49082U 21075H   25328.23686051  .00000094  00000+0  20797-3 0  9999
2 49082  87.9127  46.6261 0001836 100.0450 260.0889 13.17648529206649
ONEWEB-0294             
1 49083U 21075J   25328.17522713  .00000548  00000+0  14874-2 0  9999
2 49083  87.8963  31.3824 0001862  86.8008 273.3334 13.12442831207682
ONEWEB-0295             
1 49084U 21075K   25328.46382036  .00000157  00000+0  37107-3 0  9995
2 49084  87.9126  46.5854 0001452  98.9792 261.1504 13.17652651206631
ONEWEB-0296             
1 49085U 21075L   25328.46071105  .00000097  00000+0  23332-3 0  9996
2 49085  87.8955  31.3306 0001457  88.6374 271.4921 13.12444461207723
ONEWEB-0297             
1 49086U 21075M   25328.41529440  .00000269  00000+0  71173-3 0  9999
2 49086  87.8953  31.3729 0001736 101.8906 258.2417 13.12441410208321
ONEWEB-0298             
1 49087U 21075N   25328.24037315  .00000125  00000+0  28772-3 0  9994
2 49087  87.9129  46.6267 0001897 107.4329 252.7010 13.17648358206638
ONEWEB-0299             
1 49088U 21075P   25328.24192694  .00000147  00000+0  34498-3 0  9993
2 49088  87.9135  46.5861 0001648 105.7146 254.4167 13.17648580206614
ONEWEB-0300             
1 49089U 21075Q   25328.25471080  .00000458  00000+0  12382-2 0  9996
2 49089  87.8963  31.3628 0002019 110.9621 249.1724 13.12442443208320
ONEWEB-0301             
1 49090U 21075R   25328.23848542  .00000376  00000+0  10110-2 0  9993
2 49090  87.8957  31.3684 0002089 111.6063 248.5288 13.12442845207684
ONEWEB-0302             
1 49091U 21075S   25328.45421671 -.00000102  00000+0 -31934-3 0  9995
2 49091  87.8959  31.3333 0001706  88.9035 271.2289 13.12443750207699
ONEWEB-0304             
1 49092U 21075T   25328.21661372  .00000139  00000+0  32575-3 0  9994
2 49092  87.9136  46.6220 0001698 102.4551 257.6771 13.17648664206584
ONEWEB-0305             
1 49093U 21075U   25328.28580212  .00000119  00000+0  27346-3 0  9993
2 49093  87.9136  46.5852 0001408 107.2466 252.8820 13.17648699206627
ONEWEB-0308             
1 49094U 21075V   25328.44771581 -.00000246  00000+0 -71958-3 0  9994
2 49094  87.8961  31.3278 0001827 100.0633 260.0701 13.12443014207707
ONEWEB-0309             
1 49095U 21075W   25328.28917425  .00000210  00000+0  50734-3 0  9994
2 49095  87.9135  46.6005 0001806  91.4910 268.6428 13.17648182206591
ONEWEB-0310             
1 49096U 21075X   25328.46232625 -.00000101  00000+0 -31516-3 0  9995
2 49096  87.8949  31.3635 0001701  93.8204 266.3119 13.12446171208335
